[{"OBJECT_NAME":"STARLINK-30402","OBJECT_ID":"2023-138V","EPOCH":"2026-03-09T22:00:01.999584","MEAN_MOTION":15.25118124,"ECCENTRICITY":0.00016397,"INCLINATION":42.9996,"RA_OF_ASC_NODE":232.7467,"ARG_OF_PERICENTER":315.8136,"MEAN_ANOMALY":84.1579,"EPHEMERIS_TYPE":0,"CLASSIFICATION_TYPE":"U","NORAD_CAT_ID":57827,"ELEMENT_SET_NO":999,"REV_AT_EPOCH":572,"BSTAR":0.035382216,"MEAN_MOTION_DOT":0.00981389,"MEAN_MOTION_DDOT":0},{"OBJECT_NAME":"SCS-01 H","OBJECT_ID":"2025-100H","EPOCH":"2026-03-09T23:19:05.376864","MEAN_MOTION":15.31767757,"ECCENTRICITY":0.00071581,"INCLINATION":97.3749,"RA_OF_ASC_NODE":145.8085,"ARG_OF_PERICENTER":277.8492,"MEAN_ANOMALY":82.1937,"EPHEMERIS_TYPE":0,"CLASSIFICATION_TYPE":"U","NORAD_CAT_ID":63989,"ELEMENT_SET_NO":999,"REV_AT_EPOCH":4566,"BSTAR":0.0011436254,"MEAN_MOTION_DOT":0.00035149,"MEAN_MOTION_DDOT":0}]
